STARLINK-5245           
1 54168U 22141M   26068.07575986 -.00000304  00000+0 -10235-5 0  9997
2 54168  53.2197   6.9648 0001698  91.7916 268.3271 15.08839767185763
LEMUR-2-ESPERANZA       
1 63352U 25061B   26068.87489603  .00006090  00000+0  34973-3 0  9993
2 63352  97.5568  45.1407 0016949 244.8770 115.0702 15.12770807 52576
